{
  "type": "FeatureCollection",
  "features": [
    {
      "type": "Feature",
      "properties": {
        "norad_id": 33805,
        "name": "COSMOS 2251 DEB",
        "group": "cosmos-2251-debris",
        "lat": -71.26648534299972,
        "lon": -170.26930319041273,
        "alt_km": 727.4048750187612,
        "timestamp": "2025-12-12T07:43:20.908266+00:00",
        "meta_object_name": "COSMOS 2251 DEB",
        "meta_object_id": "1993-036AW",
        "meta_epoch": "2025-12-11T23:57:00.865152",
        "meta_mean_motion": 14.57853001,
        "meta_eccentricity": 0.00602333,
        "meta_inclination": 74.0307,
        "meta_ra_of_asc_node": 312.7419,
        "meta_arg_of_pericenter": 141.9521,
        "meta_mean_anomaly": 218.5921,
        "meta_ephemeris_type": 0,
        "meta_classification_type": "U",
        "meta_norad_cat_id": 33805,
        "meta_element_set_no": 999,
        "meta_rev_at_epoch": 89216,
        "meta_bstar": 0.00037413375,
        "meta_mean_motion_dot": 1.727e-05,
        "meta_mean_motion_ddot": 0,
        "tle_line1": "1 33805U 93036AW  25345.99792668  .00001727  00000+0  37413-3 0  9992",
        "tle_line2": "2 33805  74.0307 312.7419 0060233 141.9521 218.5921 14.57853001892164"
      },
      "geometry": {
        "type": "Point",
        "coordinates": [
          -170.26930319041273,
          -71.26648534299972
        ]
      }
    },
    {
      "type": "Feature",
      "properties": {
        "norad_id": 33811,
        "name": "COSMOS 2251 DEB",
        "group": "cosmos-2251-debris",
        "lat": 53.162258576729805,
        "lon": -33.700935112159584,
        "alt_km": 527.4877512166431,
        "timestamp": "2025-12-12T07:43:20.908277+00:00",
        "meta_object_name": "COSMOS 2251 DEB",
        "meta_object_id": "1993-036BC",
        "meta_epoch": "2025-12-11T23:47:03.219936",
        "meta_mean_motion": 15.0523387,
        "meta_eccentricity": 0.0030604,
        "meta_inclination": 73.8382,
        "meta_ra_of_asc_node": 304.209,
        "meta_arg_of_pericenter": 24.8229,
        "meta_mean_anomaly": 39.8995,
        "meta_ephemeris_type": 0,
        "meta_classification_type": "U",
        "meta_norad_cat_id": 33811,
        "meta_element_set_no": 999,
        "meta_rev_at_epoch": 90007,
        "meta_bstar": 0.001599047,
        "meta_mean_motion_dot": 0.00023111,
        "meta_mean_motion_ddot": 0,
        "tle_line1": "1 33811U 93036BC  25345.99100949  .00023111  00000+0  15990-2 0  9990",
        "tle_line2": "2 33811  73.8382 304.2090 0030604  24.8229  39.8995 15.05233870900070"
      },
      "geometry": {
        "type": "Point",
        "coordinates": [
          -33.700935112159584,
          53.162258576729805
        ]
      }
    },
    {
      "type": "Feature",
      "properties": {
        "norad_id": 33815,
        "name": "COSMOS 2251 DEB",
        "group": "cosmos-2251-debris",
        "lat": 68.57304047107225,
        "lon": -49.71413377862055,
        "alt_km": 507.0437601827971,
        "timestamp": "2025-12-12T07:43:20.908287+00:00",
        "meta_object_name": "COSMOS 2251 DEB",
        "meta_object_id": "1993-036BG",
        "meta_epoch": "2025-12-10T00:34:36.803712",
        "meta_mean_motion": 15.1696459,
        "meta_eccentricity": 0.00027751,
        "meta_inclination": 73.9523,
        "meta_ra_of_asc_node": 182.2836,
        "meta_arg_of_pericenter": 231.9732,
        "meta_mean_anomaly": 286.9539,
        "meta_ephemeris_type": 0,
        "meta_classification_type": "U",
        "meta_norad_cat_id": 33815,
        "meta_element_set_no": 999,
        "meta_rev_at_epoch": 88329,
        "meta_bstar": 0.0073023687,
        "meta_mean_motion_dot": 0.00147157,
        "meta_mean_motion_ddot": 0,
        "tle_line1": "1 33815U 93036BG  25344.02403708  .00147157  00000+0  73024-2 0  9995",
        "tle_line2": "2 33815  73.9523 182.2836 0002775 231.9732 286.9539 15.16964590883297"
      },
      "geometry": {
        "type": "Point",
        "coordinates": [
          -49.71413377862055,
          68.57304047107225
        ]
      }
    },
    {
      "type": "Feature",
      "properties": {
        "norad_id": 33816,
        "name": "COSMOS 2251 DEB",
        "group": "cosmos-2251-debris",
        "lat": 5.583059643227437,
        "lon": -75.51363809446671,
        "alt_km": 844.4119368277488,
        "timestamp": "2025-12-12T07:43:20.908299+00:00",
        "meta_object_name": "COSMOS 2251 DEB",
        "meta_object_id": "1993-036BH",
        "meta_epoch": "2025-12-11T11:47:39.911424",
        "meta_mean_motion": 13.81781196,
        "meta_eccentricity": 0.02647437,
        "meta_inclination": 73.8948,
        "meta_ra_of_asc_node": 107.5116,
        "meta_arg_of_pericenter": 120.6874,
        "meta_mean_anomaly": 242.0628,
        "meta_ephemeris_type": 0,
        "meta_classification_type": "U",
        "meta_norad_cat_id": 33816,
        "meta_element_set_no": 999,
        "meta_rev_at_epoch": 84656,
        "meta_bstar": 0.00078196,
        "meta_mean_motion_dot": 1.071e-05,
        "meta_mean_motion_ddot": 0,
        "tle_line1": "1 33816U 93036BH  25345.49143416  .00001071  00000+0  78196-3 0  9995",
        "tle_line2": "2 33816  73.8948 107.5116 0264743 120.6874 242.0628 13.81781196846565"
      },
      "geometry": {
        "type": "Point",
        "coordinates": [
          -75.51363809446671,
          5.583059643227437
        ]
      }
    },
    {
      "type": "Feature",
      "properties": {
        "norad_id": 33818,
        "name": "COSMOS 2251 DEB",
        "group": "cosmos-2251-debris",
        "lat": 1.336954064649033,
        "lon": 167.48704767752648,
        "alt_km": 548.3097275906694,
        "timestamp": "2025-12-12T07:43:20.908318+00:00",
        "meta_object_name": "COSMOS 2251 DEB",
        "meta_object_id": "1993-036BK",
        "meta_epoch": "2025-12-11T22:53:20.347008",
        "meta_mean_motion": 15.12395934,
        "meta_eccentricity": 0.00272383,
        "meta_inclination": 74.0763,
        "meta_ra_of_asc_node": 167.8656,
        "meta_arg_of_pericenter": 157.0445,
        "meta_mean_anomaly": 1.4813,
        "meta_ephemeris_type": 0,
        "meta_classification_type": "U",
        "meta_norad_cat_id": 33818,
        "meta_element_set_no": 999,
        "meta_rev_at_epoch": 89850,
        "meta_bstar": 0.0027476643,
        "meta_mean_motion_dot": 0.00048421,
        "meta_mean_motion_ddot": 0,
        "tle_line1": "1 33818U 93036BK  25345.95370772  .00048421  00000+0  27477-2 0  9990",
        "tle_line2": "2 33818  74.0763 167.8656 0027238 157.0445   1.4813 15.12395934898508"
      },
      "geometry": {
        "type": "Point",
        "coordinates": [
          167.48704767752648,
          1.336954064649033
        ]
      }
    },
    {
      "type": "Feature",
      "properties": {
        "norad_id": 33819,
        "name": "COSMOS 2251 DEB",
        "group": "cosmos-2251-debris",
        "lat": -61.99044315786245,
        "lon": 62.81500324964344,
        "alt_km": 854.6530899472145,
        "timestamp": "2025-12-12T07:43:20.908329+00:00",
        "meta_object_name": "COSMOS 2251 DEB",
        "meta_object_id": "1993-036BL",
        "meta_epoch": "2025-12-12T00:22:49.719072",
        "meta_mean_motion": 14.3221869,
        "meta_eccentricity": 0.00890701,
        "meta_inclination": 74.1789,
        "meta_ra_of_asc_node": 211.1551,
        "meta_arg_of_pericenter": 72.7005,
        "meta_mean_anomaly": 37.0755,
        "meta_ephemeris_type": 0,
        "meta_classification_type": "U",
        "meta_norad_cat_id": 33819,
        "meta_element_set_no": 999,
        "meta_rev_at_epoch": 87485,
        "meta_bstar": 0.00097120826,
        "meta_mean_motion_dot": 2.711e-05,
        "meta_mean_motion_ddot": 0,
        "tle_line1": "1 33819U 93036BL  25346.01585323  .00002711  00000+0  97121-3 0  9995",
        "tle_line2": "2 33819  74.1789 211.1551 0089070  72.7005  37.0755 14.32218690874858"
      },
      "geometry": {
        "type": "Point",
        "coordinates": [
          62.81500324964344,
          -61.99044315786245
        ]
      }
    },
    {
      "type": "Feature",
      "properties": {
        "norad_id": 33821,
        "name": "COSMOS 2251 DEB",
        "group": "cosmos-2251-debris",
        "lat": 34.57533197392425,
        "lon": -47.66283812708773,
        "alt_km": 457.63229646595664,
        "timestamp": "2025-12-12T07:43:20.908339+00:00",
        "meta_object_name": "COSMOS 2251 DEB",
        "meta_object_id": "1993-036BN",
        "meta_epoch": "2025-12-11T20:04:25.275360",
        "meta_mean_motion": 15.25222892,
        "meta_eccentricity": 0.00520936,
        "meta_inclination": 74.0302,
        "meta_ra_of_asc_node": 144.7462,
        "meta_arg_of_pericenter": 178.6235,
        "meta_mean_anomaly": 181.5119,
        "meta_ephemeris_type": 0,
        "meta_classification_type": "U",
        "meta_norad_cat_id": 33821,
        "meta_element_set_no": 999,
        "meta_rev_at_epoch": 74987,
        "meta_bstar": 0.0016744057,
        "meta_mean_motion_dot": 0.00043955,
        "meta_mean_motion_ddot": 0,
        "tle_line1": "1 33821U 93036BN  25345.83640365  .00043955  00000+0  16744-2 0  9991",
        "tle_line2": "2 33821  74.0302 144.7462 0052093 178.6235 181.5119 15.25222892749873"
      },
      "geometry": {
        "type": "Point",
        "coordinates": [
          -47.66283812708773,
          34.57533197392425
        ]
      }
    }
  ]
}